#dP2023  6 11 18  0  0.00000000      96 __u+U ITR00 EXT  IAC
## 2266  64800.00000000   900.00000000 60106 0.7500000000000
+  119   C06C07C08C09C10C11C12C13C14C16C19C20C21C22C23C24C25
+        C26C27C28C29C30C32C33C34C35C36C37C38C39C40C41C42C43
+        C44C45C46E02E03E04E05E07E08E09E10E11E12E13E14E15E18
+        E19E21E24E25E26E27E30E31E33E34E36G01G02G03G04G05G06
+        G07G08G09G10G11G12G13G14G15G16G17G18G19G20G21G22G23
+        G24G25G26G27G28G29G30G31G32J02J03J04R01R02R03R04R05
+        R07R08R09R11R12R13R14R15R16R17R18R19R20R21R22R24R25
++         8 13 10 10 12 10  7 10  8  8  6  7  7  8  9  8  7
++         7  9  9  7  6  8  9  9  7  8  9  9 10  8  9  8  6
++         9  7  8  6  6  7  6  7  8  6  9  7  6  7  6  5  7
++         8  6  6  6  7  7  8  8  6  8  6  7  6  6  8  7  6
++         7  6  6  7  6  9  6  8  6  6  7  6  6  7  7  7  6
++         7  6  7  8  6  6  7  6  6  7 10 11  8  8  8  7  7
++         7  8  8  7  6  7  8  7  7  8  9  9  8  6  8  9  6
%c M  cc GPS ccc cccc cccc cccc cccc ccccc ccccc ccccc ccccc
%c cc cc ccc ccc cccc cccc cccc cccc ccccc ccccc ccccc ccccc
%f  0.0000000  0.000000000  0.00000000000  0.000000000000000
%f  0.0000000  0.000000000  0.00000000000  0.000000000000000
%i    0    0    0    0      0      0      0      0         0
%i    0    0    0    0      0      0      0      0         0
/* IAC                                ULTRA-RAPID PREDICTION
/* S/V CLOCKS ARE ALIGNED TO GNSS TIME                      
/* G:C1WC2W R:C1PC2P E:C1XC5X C:C2IC6I J:C1CC2S             
/* PCV:IGS20_2247 OL/AL:FES2004  NONE     YN ORB:CoN CLK:CoN
*  2023 06 11 22 15  0.00000000
PC06 -15676.713714  38337.200283   7025.821783   -179.526863
PC07  -2205.480467  33109.518399  26172.220674   -158.106587
PC08 -12542.668205  20142.950890 -34906.510201    461.976205
PC09  -8689.696403  37371.384517  17229.100000    545.627625
PC10   5228.582583  36129.269003  21842.860274    -83.373200
PC11 -13217.282278  23215.434259   8168.031560    669.046077
PC12 -16839.627475   6630.188941  21274.681970    705.793031
PC13  -3732.781151  22060.114806 -35618.439612    294.297037
PC14  -7934.206520  14125.397489 -22711.186178    395.651911
PC16 -16919.173054  38131.706424   5178.645301     46.498346
PC19  -1003.855850 -20029.617907  19418.093460   -921.892688
PC20  14436.356892  -7313.568881  22751.464512    509.316318
PC21 -22377.979731 -10901.708674 -12566.882202   -922.570411
PC22 -16660.576429 -21873.080642   4664.051912   -445.337786
PC23  10337.007755  13773.142134  21968.825265   -954.963504
PC24 -25473.555872  10163.060359   5207.549884     51.578182
PC25  -9362.662702  17307.683284  19787.747402    145.403372
PC26 -25673.405883  -1155.822100 -10928.000526   -133.403949
PC27  15741.727518   2959.987565 -22875.794675    153.768821
PC28   6983.844921  20207.938462 -17936.483518    114.174266
PC29   6222.932444 -27181.796017   1075.542508    132.769266
PC30  15787.505100 -16636.331065 -15922.851545     -1.108508
PC32  22503.842963  10790.713878  12521.847836   -550.048192
PC33   1080.881848  20019.564097 -19415.877057   -893.917503
PC34 -15444.285893  17796.237884  14919.034486    191.026876
PC35  -7372.160906 -20452.042936  17501.409139    609.758752
PC36  10558.087988 -17010.132971 -19411.587275   -388.650180
PC37  25130.093564   2541.820667  11860.931428   -785.314829
PC38 -20462.484294  21197.408300 -30197.712113     84.481960
PC39 -17898.065407  38049.777170   -346.025370     -3.271563
PC40  -4976.867058  29586.531862  29726.672452    -25.956485
PC41  16371.185994  21979.371755  -5244.643187   -923.319589
PC42 -15387.424360   6131.255707 -22408.948805   -653.346118
PC43  -6804.343630  27051.491934   -283.724746     25.744746
PC44 -15900.229450  -2661.347696  22759.474157    135.197943
PC45 -10842.181668 -13440.555662 -21919.937617   -109.167484
PC46  24785.168978 -10929.429283  -6629.775230    -60.824886
PE02  -6547.025699  15440.276881  24388.900911     43.502933
PE03  -3075.526780  26773.990248 -12256.328387    -25.455017
PE04  -9987.738998 -27250.281195  -5794.495093   -142.697210
PE05 -14605.774689  10548.310926 -23477.932810    -58.873731
PE07  17439.197125  11984.346206  20714.335561    -51.959492
PE08   9822.126818  27381.029316   5524.096344    -97.508731
PE09 -17305.479479 -12141.694652 -20704.107327    -46.834036
PE10 -12725.240054  -9969.514096  24782.024988   -540.512703
PE11 -20235.664597   -545.253552  21572.841745   2194.418493
PE12  -3962.274440 -17162.501855  23781.952338   -575.999537
PE13  19779.693719   1162.447441 -21997.988020    -19.251365
PE14  12831.488553  27340.831886 -11411.320577    251.408307
PE15   3628.902902  17308.795256 -23737.383183    -28.750848
PE18  -8035.858184 -21122.872108   7009.615526    170.984782
PE19   4909.149850 -25372.945624  14443.337535  -2321.312660
PE21  23665.935261  -4633.845117 -17166.047405   -534.446138
PE24 -27843.741394 -10016.660408  -1070.785116   -149.768458
PE25 -23881.694544   4394.574139  16932.730406   -606.596169
PE26  24070.644385 -15892.250159  -6654.231739    131.334838
PE27  28040.891509   9466.531225    379.760498    -72.336956
PE30  15282.965637  18012.091233  17824.409349   -247.801316
PE31 -15864.778896 -17832.604060 -17498.150267   -525.690917
PE33  14543.548009 -23106.766522  11441.886333   -443.281462
PE34 -14369.447612  23146.316734 -11593.769533    -50.313786
PE36 -24132.984678  15449.338372   7397.954794    -69.856074
PG01 -10968.406772  20158.489449 -13395.684903    178.994037
PG02 -14840.931811  20821.431108  -6396.741902   -586.671446
PG03  -1244.308982  15198.140946 -21893.861310   -273.712641
PG04   -928.833960  25684.692800  -6444.188458     65.768327
PG05  17993.737632  -7356.966054  17973.414452   -130.742477
PG06  19091.345085     18.493988 -18449.380110    585.485144
PG07   4429.251982  15971.111181  21126.861055    154.799570
PG08  -8024.628958  18887.446178  16568.654555   -126.925139
PG09   7288.004398  25313.414492   3138.129682   -137.965761
PG10 -23899.799127 -11404.992826   3815.051370    -40.757989
PG11  22922.588099 -11718.372372  -6441.504452   -231.822630
PG12   5627.781153 -14172.846666 -22024.678020   -387.412547
PG13  13116.551227 -11624.358986  19713.807780    532.706272
PG14  22037.408065  13626.188912   6220.307061     87.516745
PG15   5499.057237 -20350.387846  15541.576302     47.987659
PG16 -21224.296507   2136.632456  15798.531211   -492.417445
PG17  13010.862824  15815.103270 -16427.743855    718.053288
PG18  -6591.125471 -13691.363144  21767.588580   -303.816684
PG19  14794.443256   7872.699431 -20900.050160    329.308325
PG20  24026.005586  -3332.868223  10628.599179    428.530480
PG21 -16520.036299  19801.506612  -3400.220589    153.181691
PG22 -15090.694432  -3934.328832 -21068.515549    496.368039
PG23 -15971.780678 -15652.264316  14453.969125     32.301422
PG24  12653.250457 -21610.075718  -8545.656775   -221.555418
PG25  -8151.442618 -17149.381513 -18990.382621    449.166166
PG26 -25991.209990  -3655.613728   5009.993643    239.240615
PG27 -13560.540542   7461.919347  21278.766601     18.417115
PG28 -18273.758745  -1628.676040 -19225.946422     82.967007
PG29  -3385.274308 -26263.602514   1188.291999   -602.491021
PG30  14042.512757   8524.970784  21022.903342   -511.634749
PG31 -22981.101575   8354.311684 -11050.689361   -217.970940
PG32 -14971.236500 -12891.518563 -17664.364449   -498.070992
PJ02 -28465.942261  21403.869386  27625.112612     -0.469318
PJ03 -32233.619984  26619.528414  10253.292979      6.281554
PJ04 -23000.607267  22084.041074 -22444.822196     95.299065
PR01 -17166.667568 -14458.134344 -12102.492158     59.251564
PR02 -11628.933672   1528.425736 -22611.509138    -22.713521
PR03     84.847889  16618.200331 -19281.920002     79.504642
PR04  11408.979476  22150.691081  -5410.642680    190.829295
PR05  16502.331793  15741.531487  11419.472018    114.022203
PR07   -674.269567 -17199.105231  18887.671777     57.838413
PR08 -11568.799732 -22127.974389   5345.982820    -71.222379
PR09  24038.122747  -5460.562078  -6699.598423    125.289365
PR11  -6420.533517 -10199.128649 -22465.920104    -77.302272
PR12 -22772.731210  -3685.459037 -10870.284072     28.063208
PR13 -24671.288303   4276.219940   4854.562161    -35.995210
PR14 -11401.641771  10655.940465  20185.000026     24.774796
PR15   7716.838711  10145.404754  22118.629524     88.681631
PR16  22633.581200   3618.104840  11245.590544     15.534470
PR17 -11130.993671  22954.497762   -973.775994    638.169175
PR18  -1842.713595  19489.174398 -16316.730758     86.124602
PR19   7496.310705   7697.074894 -23142.292742   -235.944109
PR20  15230.355425 -12455.656587 -16258.221555    -94.534500
PR21  10651.974220 -23036.772479   2402.412278    -14.502715
PR22   1602.228057 -19082.421820  16879.714290     80.312878
PR24 -15110.057043  13324.955088  15665.104133    -11.323055
PR25  12191.488521 -22378.549142    847.034516     59.798086
EOF
